{"type": "FeatureCollection", "features": [ {"type": "Feature", "properties": {"norad_id": 66653, "name": "2025-274D", "group": "last-30-days", "lat": 38.722411315862786, "lon": 95.02546305717092, "alt_km": 594.6364943652015, "timestamp": "2025-12-07T11:27:48.741877+00:00", "meta": {"OBJECT_NAME": "2025-274D", "OBJECT_ID": "2025-274D", "EPOCH": "2025-12-06T18:44:11.238432", "MEAN_MOTION": 14.918606, "ECCENTRICITY": 0.00112399, "INCLINATION": 97.7389, "RA_OF_ASC_NODE": 268.0815, "ARG_OF_PERICENTER": 276.5881, "MEAN_ANOMALY": 83.4058, "EPHEMERIS_TYPE": 0, "CLASSIFICATION_TYPE": "U", "NORAD_CAT_ID": 66653, "ELEMENT_SET_NO": 999, "REV_AT_EPOCH": 151, "BSTAR": 0.00037475306, "MEAN_MOTION_DOT": 3.734e-05, "MEAN_MOTION_DDOT": 0}, "tle": {"line1": "1 66653U 25274D   25340.78068563  .00003734  00000+0  37475-3 0  9998", "line2": "2 66653  97.7389 268.0815 0011239 276.5881  83.4058 14.91860600  1514"}}, "geometry": {"type": "Point", "coordinates": [95.02546305717092, 38.722411315862786]}}, {"type": "Feature", "properties": {"norad_id": 66654, "name": "JACK E", "group": "last-30-days", "lat": 32.43625191170537, "lon": 93.72693441751966, "alt_km": 594.8429197476935, "timestamp": "2025-12-07T11:27:48.741887+00:00", "meta": {"OBJECT_NAME": "JACK E", "OBJECT_ID": "2025-274E", "EPOCH": "2025-12-06T18:42:35.432064", "MEAN_MOTION": 14.92032592, "ECCENTRICITY": 0.00118202, "INCLINATION": 97.7393, "RA_OF_ASC_NODE": 268.0833, "ARG_OF_PERICENTER": 278.1013, "MEAN_ANOMALY": 81.8865, "EPHEMERIS_TYPE": 0, "CLASSIFICATION_TYPE": "U", "NORAD_CAT_ID": 66654, "ELEMENT_SET_NO": 999, "REV_AT_EPOCH": 151, "BSTAR": 0.00043780536, "MEAN_MOTION_DOT": 4.392e-05, "MEAN_MOTION_DDOT": 0}, "tle": {"line1": "1 66654U 25274E   25340.77957676  .00004392  00000+0  43781-3 0  9998", "line2": "2 66654  97.7393 268.0833 0011820 278.1013  81.8865 14.92032592  1511"}}, "geometry": {"type": "Point", "coordinates": [93.72693441751966, 32.43625191170537]}}, {"type": "Feature", "properties": {"norad_id": 66655, "name": "2025-274F", "group": "last-30-days", "lat": 24.84382849540176, "lon": 92.37937643295149, "alt_km": 593.9678083470853, "timestamp": "2025-12-07T11:27:48.741899+00:00", "meta": {"OBJECT_NAME": "2025-274F", "OBJECT_ID": "2025-274F", "EPOCH": "2025-12-06T20:17:23.702208", "MEAN_MOTION": 14.92429092, "ECCENTRICITY": 0.00065248, "INCLINATION": 97.7352, "RA_OF_ASC_NODE": 268.1503, "ARG_OF_PERICENTER": 318.9562, "MEAN_ANOMALY": 41.1166, "EPHEMERIS_TYPE": 0, "CLASSIFICATION_TYPE": "U", "NORAD_CAT_ID": 66655, "ELEMENT_SET_NO": 999, "REV_AT_EPOCH": 152, "BSTAR": 0.0016472003, "MEAN_MOTION_DOT": 0.0001686, "MEAN_MOTION_DDOT": 0}, "tle": {"line1": "1 66655U 25274F   25340.84541322  .00016860  00000+0  16472-2 0  9993", "line2": "2 66655  97.7352 268.1503 0006524 318.9562  41.1166 14.92429092  1528"}}, "geometry": {"type": "Point", "coordinates": [92.37937643295149, 24.84382849540176]}}, {"type": "Feature", "properties": {"norad_id": 66656, "name": "2025-274G", "group": "last-30-days", "lat": 25.48656633610691, "lon": 92.48802201645336, "alt_km": 595.0134310571375, "timestamp": "2025-12-07T11:27:48.741909+00:00", "meta": {"OBJECT_NAME": "2025-274G", "OBJECT_ID": "2025-274G", "EPOCH": "2025-12-06T18:40:49.621440", "MEAN_MOTION": 14.92219802, "ECCENTRICITY": 0.00124648, "INCLINATION": 97.7391, "RA_OF_ASC_NODE": 268.0842, "ARG_OF_PERICENTER": 279.917, "MEAN_ANOMALY": 80.0642, "EPHEMERIS_TYPE": 0, "CLASSIFICATION_TYPE": "U", "NORAD_CAT_ID": 66656, "ELEMENT_SET_NO": 999, "REV_AT_EPOCH": 151, "BSTAR": 0.00049696804, "MEAN_MOTION_DOT": 5.017e-05, "MEAN_MOTION_DDOT": 0}, "tle": {"line1": "1 66656U 25274G   25340.77835210  .00005017  00000+0  49697-3 0  9996", "line2": "2 66656  97.7391 268.0842 0012464 279.9170  80.0642 14.92219802  1514"}}, "geometry": {"type": "Point", "coordinates": [92.48802201645336, 25.48656633610691]}}, {"type": "Feature", "properties": {"norad_id": 66657, "name": "SPIRONE", "group": "last-30-days", "lat": 18.57729221181188, "lon": 91.39385334327196, "alt_km": 596.2028218384849, "timestamp": "2025-12-07T11:27:48.741919+00:00", "meta": {"OBJECT_NAME": "SPIRONE", "OBJECT_ID": "2025-274H", "EPOCH": "2025-12-06T18:39:05.607072", "MEAN_MOTION": 14.92399421, "ECCENTRICITY": 0.00109595, "INCLINATION": 97.7389, "RA_OF_ASC_NODE": 268.0859, "ARG_OF_PERICENTER": 298.7939, "MEAN_ANOMALY": 61.2179, "EPHEMERIS_TYPE": 0, "CLASSIFICATION_TYPE": "U", "NORAD_CAT_ID": 66657, "ELEMENT_SET_NO": 999, "REV_AT_EPOCH": 151, "BSTAR": 0.00048630112, "MEAN_MOTION_DOT": 4.929e-05, "MEAN_MOTION_DDOT": 0}, "tle": {"line1": "1 66657U 25274H   25340.77714823  .00004929  00000+0  48630-3 0  9990", "line2": "2 66657  97.7389 268.0859 0010959 298.7939  61.2179 14.92399421  1511"}}, "geometry": {"type": "Point", "coordinates": [91.39385334327196, 18.57729221181188]}}, {"type": "Feature", "properties": {"norad_id": 66658, "name": "2025-274J", "group": "last-30-days", "lat": 11.850358722153727, "lon": 90.41184665160452, "alt_km": 596.6220464095195, "timestamp": "2025-12-07T11:27:48.741930+00:00", "meta": {"OBJECT_NAME": "2025-274J", "OBJECT_ID": "2025-274J", "EPOCH": "2025-12-06T18:37:23.200608", "MEAN_MOTION": 14.92572861, "ECCENTRICITY": 0.0011554, "INCLINATION": 97.7391, "RA_OF_ASC_NODE": 268.087, "ARG_OF_PERICENTER": 301.9626, "MEAN_ANOMALY": 58.0469, "EPHEMERIS_TYPE": 0, "CLASSIFICATION_TYPE": "U", "NORAD_CAT_ID": 66658, "ELEMENT_SET_NO": 999, "REV_AT_EPOCH": 151, "BSTAR": 0.00047014759, "MEAN_MOTION_DOT": 4.785e-05, "MEAN_MOTION_DDOT": 0}, "tle": {"line1": "1 66658U 25274J   25340.77596297  .00004785  00000+0  47015-3 0  9990", "line2": "2 66658  97.7391 268.0870 0011554 301.9626  58.0469 14.92572861  1517"}}, "geometry": {"type": "Point", "coordinates": [90.41184665160452, 11.850358722153727]}}, {"type": "Feature", "properties": {"norad_id": 66659, "name": "JACK K", "group": "last-30-days", "lat": 4.716363784155176, "lon": 89.42301002999244, "alt_km": 596.6904825425581, "timestamp": "2025-12-07T11:27:48.741940+00:00", "meta": {"OBJECT_NAME": "JACK K", "OBJECT_ID": "2025-274K", "EPOCH": "2025-12-06T18:35:34.616544", "MEAN_MOTION": 14.92758727, "ECCENTRICITY": 0.00122721, "INCLINATION": 97.7393, "RA_OF_ASC_NODE": 268.089, "ARG_OF_PERICENTER": 303.0138, "MEAN_ANOMALY": 56.9902, "EPHEMERIS_TYPE": 0, "CLASSIFICATION_TYPE": "U", "NORAD_CAT_ID": 66659, "ELEMENT_SET_NO": 999, "REV_AT_EPOCH": 151, "BSTAR": 0.00046843294, "MEAN_MOTION_DOT": 4.791e-05, "MEAN_MOTION_DDOT": 0}, "tle": {"line1": "1 66659U 25274K   25340.77470621  .00004791  00000+0  46843-3 0  9998", "line2": "2 66659  97.7393 268.0890 0012272 303.0138  56.9902 14.92758727  1517"}}, "geometry": {"type": "Point", "coordinates": [89.42301002999244, 4.716363784155176]}}, {"type": "Feature", "properties": {"norad_id": 66660, "name": "K-HERO", "group": "last-30-days", "lat": -1.0150064265089866, "lon": 88.64496627507901, "alt_km": 596.5855937286015, "timestamp": "2025-12-07T11:27:48.741950+00:00", "meta": {"OBJECT_NAME": "K-HERO", "OBJECT_ID": "2025-274L", "EPOCH": "2025-12-06T18:34:07.333536", "MEAN_MOTION": 14.92907232, "ECCENTRICITY": 0.00129299, "INCLINATION": 97.7397, "RA_OF_ASC_NODE": 268.0907, "ARG_OF_PERICENTER": 303.6775, "MEAN_ANOMALY": 56.3211, "EPHEMERIS_TYPE": 0, "CLASSIFICATION_TYPE": "U", "NORAD_CAT_ID": 66660, "ELEMENT_SET_NO": 999, "REV_AT_EPOCH": 151, "BSTAR": 0.00046203975, "MEAN_MOTION_DOT": 4.743e-05, "MEAN_MOTION_DDOT": 0}, "tle": {"line1": "1 66660U 25274L   25340.77369599  .00004743  00000+0  46204-3 0  9999", "line2": "2 66660  97.7397 268.0907 0012929 303.6775  56.3211 14.92907232  1518"}}, "geometry": {"type": "Point", "coordinates": [88.64496627507901, -1.0150064265089866]}}, {"type": "Feature", "properties": {"norad_id": 66661, "name": "SNUGLITE-III", "group": "last-30-days", "lat": -6.878738029554508, "lon": 87.84531570145555, "alt_km": 596.3213774105225, "timestamp": "2025-12-07T11:27:48.741962+00:00", "meta": {"OBJECT_NAME": "SNUGLITE-III", "OBJECT_ID": "2025-274M", "EPOCH": "2025-12-06T18:32:37.955328", "MEAN_MOTION": 14.93056475, "ECCENTRICITY": 0.00135238, "INCLINATION": 97.7395, "RA_OF_ASC_NODE": 268.0919, "ARG_OF_PERICENTER": 304.5866, "MEAN_ANOMALY": 55.4077, "EPHEMERIS_TYPE": 0, "CLASSIFICATION_TYPE": "U", "NORAD_CAT_ID": 66661, "ELEMENT_SET_NO": 999, "REV_AT_EPOCH": 151, "BSTAR": 0.00043653793, "MEAN_MOTION_DOT": 4.496e-05, "MEAN_MOTION_DDOT": 0}, "tle": {"line1": "1 66661U 25274M   25340.77266152  .00004496  00000+0  43654-3 0  9992", "line2": "2 66661  97.7395 268.0919 0013523 304.5866  55.4077 14.93056475  1517"}}, "geometry": {"type": "Point", "coordinates": [87.84531570145555, -6.878738029554508]}}, {"type": "Feature", "properties": {"norad_id": 66662, "name": "2025-274N", "group": "last-30-days", "lat": -9.263519146586498, "lon": 87.5153463952695, "alt_km": 596.1135595535061, "timestamp": "2025-12-07T11:27:48.741972+00:00", "meta": {"OBJECT_NAME": "2025-274N", "OBJECT_ID": "2025-274N", "EPOCH": "2025-12-06T18:32:00.890592", "MEAN_MOTION": 14.93103897, "ECCENTRICITY": 0.00140226, "INCLINATION": 97.7392, "RA_OF_ASC_NODE": 268.0924, "ARG_OF_PERICENTER": 303.873, "MEAN_ANOMALY": 56.1155, "EPHEMERIS_TYPE": 0, "CLASSIFICATION_TYPE": "U", "NORAD_CAT_ID": 66662, "ELEMENT_SET_NO": 999, "REV_AT_EPOCH": 151, "BSTAR": 0.00028819991, "MEAN_MOTION_DOT": 2.952e-05, "MEAN_MOTION_DDOT": 0}, "tle": {"line1": "1 66662U 25274N   25340.77223253  .00002952  00000+0  28820-3 0  9991", "line2": "2 66662  97.7392 268.0924 0014022 303.8730  56.1155 14.93103897  1514"}}, "geometry": {"type": "Point", "coordinates": [87.5153463952695, -9.263519146586498]}}]}